CUPID                   
1 49264U 21088E   26068.66993977  .00009454  00000+0  38662-3 0  9991
2 49264  97.3985 131.0756 0013746  59.9938 300.2662 15.24473777245013
STARLINK-31928          
1 59897U 24100N   26068.55943657 -.00002460  00000+0 -79884-4 0  9994
2 59897  43.0044 126.4220 0001814 274.1380  85.9265 15.27576798101038
